STARLINK-35972          
1 66638U 25271X   25356.91670139  .00049725  00000+0  12465-2 0  9999
2 66638  53.1607 138.7642 0001218  65.5747 199.8021 15.39584396  5873
STARLINK-35908          
1 66639U 25271Y   25356.91670139  .00050671  00000+0  12701-2 0  9995
2 66639  53.1609 138.7123 0001276  77.1503 214.0023 15.39578722  5871
STARLINK-35921          
1 66640U 25271Z   25356.91670139  .00049946  00000+0  12518-2 0  9996
2 66640  53.1600 138.8149 0001009  59.5772 180.0542 15.39587321  5872
STARLINK-35923          
1 66641U 25271AA  25356.91670139  .00094065  00000+0  19148-2 0  9995
2 66641  53.1604 138.5533 0001252  71.0238 299.5235 15.45516625  5878
STARLINK-35926          
1 66642U 25271AB  25356.91670139  .00048359  00000+0  99361-3 0  9997
2 66642  53.1604 138.5580 0001195  62.7461 305.8814 15.45541958  5648
STARLINK-35918          
1 66643U 25271AC  25356.91670139  .00049688  00000+0  12457-2 0  9994
2 66643  53.1608 138.6614 0001140  77.0771 239.8286 15.39580673  5879
STARLINK-35938          
1 66644U 25271AD  25356.91670139  .00032503  00000+0  67191-3 0  9999
2 66644  53.1605 138.5624 0001258  59.2648 307.4441 15.45548441  5871
SHENZHOU-22             
1 66645U 25272A   25356.83365482  .00016458  00000+0  20454-3 0  9996
2 66645  41.4686 315.4090 0007898 119.6774 240.4851 15.59577421265505
COSMOS 2597 (RODNIK-S *)
1 66647U 25273A   25356.86563006  .00000039  00000+0  21444-3 0  9992
2 66647  82.4994 280.1616 0007610 262.4856  97.5358 12.41952159  3399
COSMOS 2598 (RODNIK-S *)
1 66648U 25273B   25356.84722537  .00000027  00000+0  12266-3 0  9996
2 66648  82.5032 280.1617 0008150 212.7567 147.3009 12.43233538  3394
COSMOS 2599 (RODNIK-S *)
1 66649U 25273C   25356.87633936  .00000094  00000+0  62034-3 0  9996
2 66649  82.5050 280.1868 0006267 253.4588 106.5803 12.41151518  3399
BEE-1000                
1 66650U 25274A   25356.07657025  .00001536  00000+0  15818-3 0  9996
2 66650  97.7404 283.0932 0010866 216.8480 143.1994 14.91691100  3795
