CCSDS_OMM_VERS = 2.0
CREATION_DATE  = 
ORIGINATOR     = 

OBJECT_NAME    = STARLINK-35972
OBJECT_ID      = 2025-271X
CENTER_NAME    = EARTH
REF_FRAME      = TEME
TIME_SYSTEM    = UTC
MEAN_ELEMENT_THEORY = SGP/SGP4

EPOCH          = 2025-12-22T22:00:03.000096
MEAN_MOTION    = 15.39584396
ECCENTRICITY   = .00012182
INCLINATION    = 53.1607
RA_OF_ASC_NODE = 138.7642
ARG_OF_PERICENTER = 65.5747
MEAN_ANOMALY   = 199.8021

EPHEMERIS_TYPE = 0
CLASSIFICATION_TYPE = U
NORAD_CAT_ID   = 66638
ELEMENT_SET_NO = 999
REV_AT_EPOCH   = 587
BSTAR          = .1246452E-2
MEAN_MOTION_DOT = .49725E-3
MEAN_MOTION_DDOT = 0

CCSDS_OMM_VERS = 2.0
CREATION_DATE  = 
ORIGINATOR     = 

OBJECT_NAME    = STARLINK-35908
OBJECT_ID      = 2025-271Y
CENTER_NAME    = EARTH
REF_FRAME      = TEME
TIME_SYSTEM    = UTC
MEAN_ELEMENT_THEORY = SGP/SGP4

EPOCH          = 2025-12-22T22:00:03.000096
MEAN_MOTION    = 15.39578722
ECCENTRICITY   = .00012766
INCLINATION    = 53.1609
RA_OF_ASC_NODE = 138.7123
ARG_OF_PERICENTER = 77.1503
MEAN_ANOMALY   = 214.0023

EPHEMERIS_TYPE = 0
CLASSIFICATION_TYPE = U
NORAD_CAT_ID   = 66639
ELEMENT_SET_NO = 999
REV_AT_EPOCH   = 587
BSTAR          = .12700714E-2
MEAN_MOTION_DOT = .50671E-3
MEAN_MOTION_DDOT = 0

CCSDS_OMM_VERS = 2.0
CREATION_DATE  = 
ORIGINATOR     = 

OBJECT_NAME    = STARLINK-35921
OBJECT_ID      = 2025-271Z
CENTER_NAME    = EARTH
REF_FRAME      = TEME
TIME_SYSTEM    = UTC
MEAN_ELEMENT_THEORY = SGP/SGP4

EPOCH          = 2025-12-22T22:00:03.000096
MEAN_MOTION    = 15.39587321
ECCENTRICITY   = .00010091
INCLINATION    = 53.1600
RA_OF_ASC_NODE = 138.8149
ARG_OF_PERICENTER = 59.5772
MEAN_ANOMALY   = 180.0542

EPHEMERIS_TYPE = 0
CLASSIFICATION_TYPE = U
NORAD_CAT_ID   = 66640
ELEMENT_SET_NO = 999
REV_AT_EPOCH   = 587
BSTAR          = .12518088E-2
MEAN_MOTION_DOT = .49946E-3
MEAN_MOTION_DDOT = 0

CCSDS_OMM_VERS = 2.0
CREATION_DATE  = 
ORIGINATOR     = 

OBJECT_NAME    = STARLINK-35923
OBJECT_ID      = 2025-271AA
CENTER_NAME    = EARTH
REF_FRAME      = TEME
TIME_SYSTEM    = UTC
MEAN_ELEMENT_THEORY = SGP/SGP4

EPOCH          = 2025-12-22T22:00:03.000096
MEAN_MOTION    = 15.45516625
ECCENTRICITY   = .00012523
INCLINATION    = 53.1604
RA_OF_ASC_NODE = 138.5533
ARG_OF_PERICENTER = 71.0238
MEAN_ANOMALY   = 299.5235

EPHEMERIS_TYPE = 0
CLASSIFICATION_TYPE = U
NORAD_CAT_ID   = 66641
ELEMENT_SET_NO = 999
REV_AT_EPOCH   = 587
BSTAR          = .19147665E-2
MEAN_MOTION_DOT = .94065E-3
MEAN_MOTION_DDOT = 0

CCSDS_OMM_VERS = 2.0
CREATION_DATE  = 
ORIGINATOR     = 

OBJECT_NAME    = STARLINK-35926
OBJECT_ID      = 2025-271AB
CENTER_NAME    = EARTH
REF_FRAME      = TEME
TIME_SYSTEM    = UTC
MEAN_ELEMENT_THEORY = SGP/SGP4

EPOCH          = 2025-12-22T22:00:03.000096
MEAN_MOTION    = 15.45541958
ECCENTRICITY   = .00011956
INCLINATION    = 53.1604
RA_OF_ASC_NODE = 138.5580
ARG_OF_PERICENTER = 62.7461
MEAN_ANOMALY   = 305.8814

EPHEMERIS_TYPE = 0
CLASSIFICATION_TYPE = U
NORAD_CAT_ID   = 66642
ELEMENT_SET_NO = 999
REV_AT_EPOCH   = 564
BSTAR          = .99360748E-3
MEAN_MOTION_DOT = .48359E-3
MEAN_MOTION_DDOT = 0

CCSDS_OMM_VERS = 2.0
CREATION_DATE  = 
ORIGINATOR     = 

OBJECT_NAME    = STARLINK-35918
OBJECT_ID      = 2025-271AC
CENTER_NAME    = EARTH
REF_FRAME      = TEME
TIME_SYSTEM    = UTC
MEAN_ELEMENT_THEORY = SGP/SGP4

EPOCH          = 2025-12-22T22:00:03.000096
MEAN_MOTION    = 15.39580673
ECCENTRICITY   = .00011401
INCLINATION    = 53.1608
RA_OF_ASC_NODE = 138.6614
ARG_OF_PERICENTER = 77.0771
MEAN_ANOMALY   = 239.8286

EPHEMERIS_TYPE = 0
CLASSIFICATION_TYPE = U
NORAD_CAT_ID   = 66643
ELEMENT_SET_NO = 999
REV_AT_EPOCH   = 587
BSTAR          = .12457141E-2
MEAN_MOTION_DOT = .49688E-3
MEAN_MOTION_DDOT = 0

CCSDS_OMM_VERS = 2.0
CREATION_DATE  = 
ORIGINATOR     = 

OBJECT_NAME    = STARLINK-35938
OBJECT_ID      = 2025-271AD
CENTER_NAME    = EARTH
REF_FRAME      = TEME
TIME_SYSTEM    = UTC
MEAN_ELEMENT_THEORY = SGP/SGP4

EPOCH          = 2025-12-22T22:00:03.000096
MEAN_MOTION    = 15.45548441
ECCENTRICITY   = .00012583
INCLINATION    = 53.1605
RA_OF_ASC_NODE = 138.5624
ARG_OF_PERICENTER = 59.2648
MEAN_ANOMALY   = 307.4441

EPHEMERIS_TYPE = 0
CLASSIFICATION_TYPE = U
NORAD_CAT_ID   = 66644
ELEMENT_SET_NO = 999
REV_AT_EPOCH   = 587
BSTAR          = .67190572E-3
MEAN_MOTION_DOT = .32503E-3
MEAN_MOTION_DDOT = 0

CCSDS_OMM_VERS = 2.0
CREATION_DATE  = 
ORIGINATOR     = 

OBJECT_NAME    = SHENZHOU-22
OBJECT_ID      = 2025-272A
CENTER_NAME    = EARTH
REF_FRAME      = TEME
TIME_SYSTEM    = UTC
MEAN_ELEMENT_THEORY = SGP/SGP4

EPOCH          = 2025-12-22T20:00:27.776448
MEAN_MOTION    = 15.59577421
ECCENTRICITY   = .00078985
INCLINATION    = 41.4686
RA_OF_ASC_NODE = 315.4090
ARG_OF_PERICENTER = 119.6774
MEAN_ANOMALY   = 240.4851

EPHEMERIS_TYPE = 0
CLASSIFICATION_TYPE = U
NORAD_CAT_ID   = 66645
ELEMENT_SET_NO = 999
REV_AT_EPOCH   = 26550
BSTAR          = .20454E-3
MEAN_MOTION_DOT = .16458E-3
MEAN_MOTION_DDOT = 0

CCSDS_OMM_VERS = 2.0
CREATION_DATE  = 
ORIGINATOR     = 

OBJECT_NAME    = COSMOS 2597 (RODNIK-S 22)
OBJECT_ID      = 2025-273A
CENTER_NAME    = EARTH
REF_FRAME      = TEME
TIME_SYSTEM    = UTC
MEAN_ELEMENT_THEORY = SGP/SGP4

EPOCH          = 2025-12-22T20:46:30.437184
MEAN_MOTION    = 12.41952159
ECCENTRICITY   = .00076106
INCLINATION    = 82.4994
RA_OF_ASC_NODE = 280.1616
ARG_OF_PERICENTER = 262.4856
MEAN_ANOMALY   = 97.5358

EPHEMERIS_TYPE = 0
CLASSIFICATION_TYPE = U
NORAD_CAT_ID   = 66647
ELEMENT_SET_NO = 999
REV_AT_EPOCH   = 339
BSTAR          = .21443972E-3
MEAN_MOTION_DOT = .39E-6
MEAN_MOTION_DDOT = 0

CCSDS_OMM_VERS = 2.0
CREATION_DATE  = 
ORIGINATOR     = 

OBJECT_NAME    = COSMOS 2598 (RODNIK-S 23)
OBJECT_ID      = 2025-273B
CENTER_NAME    = EARTH
REF_FRAME      = TEME
TIME_SYSTEM    = UTC
MEAN_ELEMENT_THEORY = SGP/SGP4

EPOCH          = 2025-12-22T20:20:00.271968
MEAN_MOTION    = 12.43233538
ECCENTRICITY   = .00081503
INCLINATION    = 82.5032
RA_OF_ASC_NODE = 280.1617
ARG_OF_PERICENTER = 212.7567
MEAN_ANOMALY   = 147.3009

EPHEMERIS_TYPE = 0
CLASSIFICATION_TYPE = U
NORAD_CAT_ID   = 66648
ELEMENT_SET_NO = 999
REV_AT_EPOCH   = 339
BSTAR          = .12265645E-3
MEAN_MOTION_DOT = .27E-6
MEAN_MOTION_DDOT = 0

CCSDS_OMM_VERS = 2.0
CREATION_DATE  = 
ORIGINATOR     = 

OBJECT_NAME    = COSMOS 2599 (RODNIK-S 24)
OBJECT_ID      = 2025-273C
CENTER_NAME    = EARTH
REF_FRAME      = TEME
TIME_SYSTEM    = UTC
MEAN_ELEMENT_THEORY = SGP/SGP4

EPOCH          = 2025-12-22T21:01:55.720704
MEAN_MOTION    = 12.41151518
ECCENTRICITY   = .00062674
INCLINATION    = 82.5050
RA_OF_ASC_NODE = 280.1868
ARG_OF_PERICENTER = 253.4588
MEAN_ANOMALY   = 106.5803

EPHEMERIS_TYPE = 0
CLASSIFICATION_TYPE = U
NORAD_CAT_ID   = 66649
ELEMENT_SET_NO = 999
REV_AT_EPOCH   = 339
BSTAR          = .62033879E-3
MEAN_MOTION_DOT = .94E-6
MEAN_MOTION_DDOT = 0

CCSDS_OMM_VERS = 2.0
CREATION_DATE  = 
ORIGINATOR     = 

OBJECT_NAME    = BEE-1000
OBJECT_ID      = 2025-274A
CENTER_NAME    = EARTH
REF_FRAME      = TEME
TIME_SYSTEM    = UTC
MEAN_ELEMENT_THEORY = SGP/SGP4

EPOCH          = 2025-12-22T01:50:15.669600
MEAN_MOTION    = 14.91691100
ECCENTRICITY   = .00108663
INCLINATION    = 97.7404
RA_OF_ASC_NODE = 283.0932
ARG_OF_PERICENTER = 216.8480
MEAN_ANOMALY   = 143.1994

EPHEMERIS_TYPE = 0
CLASSIFICATION_TYPE = U
NORAD_CAT_ID   = 66650
ELEMENT_SET_NO = 999
REV_AT_EPOCH   = 379
BSTAR          = .1581754E-3
MEAN_MOTION_DOT = .1536E-4
MEAN_MOTION_DDOT = 0

